INTELSAT 25 (IS-25)     
1 33153U 08034A   22342.18938156 -.00000208  00000+0  00000+0 0  9993
2 33153   0.0161 331.7184 0003326 291.4969 210.4020  1.00271627 52738
BADR-6                  
1 33154U 08034B   22342.13521543  .00000160  00000+0  00000+0 0  9993
2 33154   0.0703  57.6470 0004733 230.4490 223.4280  1.00273502 52846
ECHOSTAR 11             
1 33207U 08035A   22341.65834066 -.00000041  00000+0  00000+0 0  9995
2 33207   0.0132 309.2929 0003121 291.5494 322.5804  1.00271230 38313
SUPERBIRD-C2            
1 33274U 08038A   22341.84943312 -.00000236  00000+0  00000+0 0  9994
2 33274   0.0333  95.8374 0002309 183.1850 247.3367  1.00271636 92825
AMC-21                  
1 33275U 08038B   22341.63994368  .00000051  00000+0  00000+0 0  9993
2 33275   0.0308  48.0556 0002721 215.1656 278.6512  1.00272755 52589
INMARSAT 4-F3           
1 33278U 08039A   22342.22007963 -.00000127  00000+0  00000+0 0  9994
2 33278   3.3659  21.8656 0002819 236.9998 159.3259  1.00271551 52367
NIMIQ 4                 
1 33373U 08044A   22341.60662500 -.00000205  00000+0  00000+0 0  9998
2 33373   0.0031   1.6526 0002169 262.7105 308.3917  1.00272485 52070
GALAXY 19 (G-19)        
1 33376U 08045A   22341.60366139 -.00000124  00000+0  00000+0 0  9991
2 33376   0.0188  52.8910 0003005 208.6604 295.1276  1.00270592 51992
ASTRA 1M                
1 33436U 08057A   22341.55511050  .00000135  00000+0  00000+0 0  9990
2 33436   0.0163  22.9189 0003014 185.0193  87.4095  1.00271907 32811
CIEL-2                  
1 33453U 08063A   22341.95594358  .00000073  00000+0  00000+0 0  9993
2 33453   0.0150  68.0729 0003508 199.2214  24.6978  1.00271895 51210
EUTELSAT HOTBIRD 13C    
1 33459U 08065A   22342.20674368  .00000102  00000+0  00000+0 0  9993
2 33459   0.0603  50.0278 0003212 188.5341 285.8309  1.00270968 51346
EUTELSAT 48D            
1 33460U 08065B   22342.19493859 -.00000086  00000+0  00000+0 0  9999
2 33460   1.9007  90.4321 0003836 164.0464 240.1599  1.00272259 51205
FENGYUN 2E              
1 33463U 08066A   22341.82132719 -.00000196  00000+0  00000+0 0  9999
2 33463   6.2904  64.2667 0001014 263.1076 131.7287  1.00274378 51180
EXPRESS-AM44            
1 33595U 09007A   22342.19493859 -.00000074  00000+0  00000+0 0  9992
2 33595   0.1447  86.3432 0000539 192.3763 217.3994  1.00271208 50659
NSS-9                   
1 33749U 09008A   22341.80293559  .00000087  00000+0  00000+0 0  9999
2 33749   0.0194 328.7070 0002451 284.9386 295.0291  1.00270569 50655
EUTELSAT 33E            
1 33750U 09008B   22342.13521543  .00000171  00000+0  00000+0 0  9999
2 33750   0.0451   0.9875 0004223 254.8109 262.8746  1.00269330 50698
TELSTAR 11N             
1 34111U 09009A   22341.57966435 -.00000236  00000+0  00000+0 0  9995
2 34111   0.0240  63.2172 0002650 184.9293 359.3289  1.00270627 33323
EUTELSAT 10A            
1 34710U 09016A   22341.55328003  .00000084  00000+0  00000+0 0  9999
2 34710   0.0344 357.3487 0006095 268.6098  19.5612  1.00274939 28339
WGS F2 (USA 204)        
1 34713U 09017A   22341.53751221  .00000082  00000+0  00000+0 0  9991
2 34713   0.0152 324.3083 0000306 302.9098  60.0760  1.00271413 32701
SES-7 (PROTOSTAR 2)     
1 34941U 09027A   22340.88554177 -.00000331  00000+0  00000+0 0  9991
2 34941   0.0758  91.0645 0002420 179.0766 232.5500  1.00269950 49701
MEASAT-3A               
1 35362U 09032A   22341.82331146 -.00000227  00000+0  00000+0 0  9993
2 35362   0.0427 205.5228 0003742  43.7765 215.1826  1.00271969 49346
GOES 14                 
1 35491U 09033A   22341.54932344 -.00000079  00000+0  00000+0 0  9998
2 35491   0.1794 260.8377 0018230 323.8208 305.2031  1.00271590 49190
FM-5                    
1 35493U 09034A   22342.22646800 -.00000185  00000+0  00000+0 0  9994
2 35493   0.0177 349.6792 0000276 270.1450 172.5439  1.00271092 49078
TERRESTAR-1             
1 35496U 09035A   22341.65687297 -.00000044  00000+0  00000+0 0  9993
2 35496   3.4526  41.7078 0002770 217.9302 302.2423  1.00271835 49226
ASIASAT 5               
1 35696U 09042A   22341.75253791 -.00000292  00000+0  00000+0 0  9997
2 35696   0.0020  35.4432 0001427 219.9214 192.5363  1.00268773 48786
JCSAT-12 (JCSAT-RA)     
1 35755U 09044A   22341.93621082 -.00000312  00000+0  00000+0 0  9990
2 35755   0.0621 120.5734 0000323 119.6632 305.5408  1.00272731 48756
OPTUS D3                
1 35756U 09044B   22341.22370925 -.00000133  00000+0  00000+0 0  9991
2 35756   0.0344  19.3831 0003502 252.5559  40.5864  1.00271787 48649
NIMIQ 5                 
1 35873U 09050A   22342.23371323 -.00000242  00000+0  00000+0 0  9994
2 35873   0.0489 101.4699 0003117 156.5602 190.3900  1.00270815 48442
AMAZONAS 2              
1 35942U 09054A   22341.82603431 -.00000267  00000+0  00000+0 0  9994
2 35942   0.0507 136.4457 0002608  63.6094 112.8999  1.00266899 48261
COMSATBW-1              
1 35943U 09054B   22342.07549378  .00000038  00000+0  00000+0 0  9997
2 35943   0.0241  36.7878 0003204 225.4124 264.8497  1.00276360 48356
NSS-12                  
1 36032U 09058A   22341.85716650  .00000086  00000+0  00000+0 0  9998
2 36032   0.0538  84.6345 0003147 178.3576 179.1937  1.00271922 48018
THOR 6                  
1 36033U 09058B   22341.77758037  .00000005  00000+0  00000+0 0  9996
2 36033   0.0283 100.1984 0002241 174.9649  80.4412  1.00271344 48094
INTELSAT 14 (IS-14)     
1 36097U 09064A   22341.55052303 -.00000258  00000+0  00000+0 0  9993
2 36097   0.0143 303.8267 0002576 311.4533 334.2245  1.00272162 47694
EUTELSAT 36B            
1 36101U 09065A   22340.98454499  .00000169  00000+0  00000+0 0  9998
2 36101   0.0707  22.4726 0005243 235.2870 208.3363  1.00274886 47801
INTELSAT 15 (IS-15)     
1 36106U 09067A   22341.75090868 -.00000171  00000+0  00000+0 0  9991
2 36106   0.0122   1.8909 0002745 266.2936 163.7965  1.00271299 28314
WGS F3 (USA 211)        
1 36108U 09068A   22338.37410367  .00000115  00000+0  00000+0 0  9995
2 36108   0.2261  96.9369 0002877 172.1330 326.4866  0.99861211 47568
DIRECTV 12              
1 36131U 09075A   22341.49799531 -.00000089  00000+0  00000+0 0  9990
2 36131   0.0474 154.6633 0000274  97.5927 260.5717  1.00271951 33652
BEIDOU 3                
1 36287U 10001A   22342.28342527 -.00000267  00000+0  00000+0 0  9998
2 36287   1.8152  50.4384 0001602 248.2438  20.8103  1.00269090 47258
RADUGA-1M 2             
1 36358U 10002A   22341.87132514 -.00000170  00000+0  00000+0 0  9998
2 36358   0.2847  99.7683 0003843 208.3547 167.1829  1.00274046 37184
SDO                     
1 36395U 10005A   22341.65947514 -.00000063  00000+0  00000+0 0  9993
2 36395  31.9949 106.4271 0002265 206.8847 258.6817  1.00271235 47159
INTELSAT 16 (IS-16)     
1 36397U 10006A   22341.53602137 -.00000230  00000+0  00000+0 0  9998
2 36397   0.0106 346.8557 0002227 268.4733 297.7282  1.00271207 46749
GOES 15                 
1 36411U 10008A   22341.63489512  .00000066  00000+0  00000+0 0  9994
2 36411   0.1361 283.5031 0003160 287.0571 326.6411  1.00281520 46754
ECHOSTAR 14             
1 36499U 10010A   22341.64667400  .00000015  00000+0  00000+0 0  9992
2 36499   0.0182 320.8265 0002097 297.3035 292.1756  1.00271380 33647
SES-1                   
1 36516U 10016A   22341.37028869 -.00000100  00000+0  00000+0 0  9994
2 36516   0.0202  32.7505 0002710 225.4482 210.2453  1.00271593 46135
ASTRA 3B                
1 36581U 10021A   22342.20674368  .00000152  00000+0  00000+0 0  9992
2 36581   0.0588 321.6360 0003753 283.4780 289.7658  1.00270798 45746
COMSATBW-2              
1 36582U 10021B   22342.20674368  .00000104  00000+0  00000+0 0  9990
2 36582   0.0584 100.2593 0003282 172.1807 252.1239  1.00273001 46080
BADR-5                  
1 36592U 10025A   22342.03452215  .00000160  00000+0  00000+0 0  9993
2 36592   0.0424 135.0797 0003449  77.6565 262.4542  1.00271199 45997
COMS 1                  
1 36744U 10032A   22341.83963941 -.00000330  00000+0  00000+0 0  9990
2 36744   1.5168  91.6792 0001143 171.2673 244.0788  1.00270919 38189
ARABSAT-5A              
1 36745U 10032B   22340.98341184  .00000168  00000+0  00000+0 0  9993
2 36745   0.0774  56.9678 0004405 186.8561 216.4606  1.00274033 45738
ECHOSTAR 15             
1 36792U 10034A   22341.14017887 -.00000267  00000+0  00000+0 0  9997
2 36792   0.0114 336.2885 0001990 279.5397 168.8635  1.00269216 45419
BEIDOU 5                
1 36828U 10036A   22341.74888613 -.00000021  00000+0  00000+0 0  9996
2 36828  54.1984 174.6460 0030504 183.1868  92.3406  1.00248726 45312
NILESAT 201             
1 36830U 10037A   22341.40640705 -.00000043  00000+0  00000+0 0  9995
2 36830   0.0206 179.3783 0005086  69.2340 326.8546  1.00271626 45458
RASCOM-QAF 1R           
1 36831U 10037B   22341.76646595  .00000034  00000+0  00000+0 0  9997
2 36831   0.0043  60.7334 0007315 195.8661  98.7544  1.00271565 45389
AEHF-1 (USA 214)        
1 36868U 10039A   22342.05257469  .00000037  00000+0  00000+0 0  9993
2 36868   4.9715  84.4707 0002544  98.5528 276.7093  1.00269598 45532
QZS-1 (MICHIBIKI-1)     
1 37158U 10045A   22341.76988468 -.00000129  00000+0  00000+0 0  9993
2 37158  42.5214 130.9985 0753535 270.3747  89.8411  1.00264555 44835
XM-5                    
1 37185U 10053A   22342.21057125 -.00000008  00000+0  00000+0 0  9996
2 37185   0.0180 354.2315 0000353 172.9600 230.3760  1.00270709 44548
BSAT-3B                 
1 37207U 10056B   22341.84395000 -.00000335  00000+0  00000+0 0  9992
2 37207   0.0680 304.1831 0004691 350.0888 195.9972  1.00268709 39217
BEIDOU 6                
1 37210U 10057A   22342.28262442 -.00000098  00000+0  00000+0 0  9995
2 37210   0.8597  47.5348 0006802 167.2730 123.9289  1.00270412 44376
SKYTERRA 1              
1 37218U 10061A   22341.66843194 -.00000105  00000+0  00000+0 0  9997
2 37218   2.6676  37.9321 0003254 185.2931 352.5138  1.00272692 44282
